start=new Date('2023-04-30T00:00:00.000Z').valueOf();
sats=[{"PERIAPSIS":"546.441","SITE":"AFETR","ECCENTRICITY":"0.00010340","PERIOD":"95.591","MEAN_ELEMENT_THEORY":"SGP4","OBJECT_NAME":"STARLINK-1852","APOAPSIS":"547.873","TIME_SYSTEM":"UTC","TLE_LINE2":"2 47139  53.0528 318.6573 0001034 110.4454 249.6646 15.06418450134233","LAUNCH_DATE":"2020-11-25","CENTER_NAME":"EARTH","DECAY_DATE":null,"EPOCH":"2023-04-29T13:06:01.008864","COUNTRY_CODE":"US","ELEMENT_SET_NO":"999","OBJECT_ID":"2020-088T","EPHEMERIS_TYPE":"0","ARG_OF_PERICENTER":"110.4454","TLE_LINE1":"1 47139U 20088T   23119.54584501  .00021837  00000-0  14796-2 0  9990","BSTAR":"0.00147960000000","RCS_SIZE":"LARGE","CLASSIFICATION_TYPE":"U","MEAN_ANOMALY":"249.6646","SEMIMAJOR_AXIS":"6925.292","GP_ID":"230925880","MEAN_MOTION_DOT":"0.00021837","REF_FRAME":"TEME","OBJECT_TYPE":"PAYLOAD","FILE":"3896517","INCLINATION":"53.0528","NORAD_CAT_ID":"47139","REV_AT_EPOCH":"13423","MEAN_MOTION_DDOT":"0.0000000000000","MEAN_MOTION":"15.06418450","RA_OF_ASC_NODE":"318.6573"},{"COUNTRY_CODE":"US","ELEMENT_SET_NO":"999","DECAY_DATE":null,"EPOCH":"2023-04-29T17:41:19.331520","MEAN_ELEMENT_THEORY":"SGP4","OBJECT_NAME":"STARLINK-1854","APOAPSIS":"547.900","TLE_LINE2":"2 47141  53.0523 302.5898 0001125  65.8546 294.2560 15.06430380134775","TIME_SYSTEM":"UTC","LAUNCH_DATE":"2020-11-25","CENTER_NAME":"EARTH","PERIAPSIS":"546.341","SITE":"AFETR","ECCENTRICITY":"0.00011250","PERIOD":"95.590","INCLINATION":"53.0523","NORAD_CAT_ID":"47141","REV_AT_EPOCH":"13477","MEAN_MOTION_DDOT":"0.0000000000000","RA_OF_ASC_NODE":"302.5898","MEAN_MOTION":"15.06430380","CLASSIFICATION_TYPE":"U","MEAN_ANOMALY":"294.2560","SEMIMAJOR_AXIS":"6925.255","GP_ID":"230935761","MEAN_MOTION_DOT":"0.00016521","REF_FRAME":"TEME","OBJECT_TYPE":"PAYLOAD","FILE":"3896641","TLE_LINE1":"1 47141U 20088V   23119.73702930  .00016521  00000-0  11245-2 0  9992","BSTAR":"0.00112450000000","RCS_SIZE":"LARGE","OBJECT_ID":"2020-088V","EPHEMERIS_TYPE":"0","ARG_OF_PERICENTER":"65.8546"},{"EPOCH":"2023-04-29T12:28:09.339456","DECAY_DATE":null,"ELEMENT_SET_NO":"999","COUNTRY_CODE":"US","ECCENTRICITY":"0.00007750","PERIOD":"95.592","SITE":"AFETR","PERIAPSIS":"546.656","CENTER_NAME":"EARTH","LAUNCH_DATE":"2020-11-25","OBJECT_NAME":"STARLINK-1856","APOAPSIS":"547.729","TLE_LINE2":"2 47143  53.0532 303.5670 0000775  70.3841 289.7232 15.06406917134443","TIME_SYSTEM":"UTC","MEAN_ELEMENT_THEORY":"SGP4","MEAN_MOTION_DOT":"0.00004576","REF_FRAME":"TEME","OBJECT_TYPE":"PAYLOAD","FILE":"3896517","SEMIMAJOR_AXIS":"6925.327","GP_ID":"230926381","CLASSIFICATION_TYPE":"U","MEAN_ANOMALY":"289.7232","MEAN_MOTION":"15.06406917","RA_OF_ASC_NODE":"303.5670","REV_AT_EPOCH":"13444","MEAN_MOTION_DDOT":"0.0000000000000","INCLINATION":"53.0532","NORAD_CAT_ID":"47143","ARG_OF_PERICENTER":"70.3841","OBJECT_ID":"2020-088X","EPHEMERIS_TYPE":"0","BSTAR":"0.00032580000000","RCS_SIZE":"LARGE","TLE_LINE1":"1 47143U 20088X   23119.51955254  .00004576  00000-0  32580-3 0  9992"},{"BSTAR":"0.00094041000000","RCS_SIZE":"LARGE","TLE_LINE1":"1 47144U 20088Y   23119.50572872  .00013754  00000-0  94041-3 0  9991","ARG_OF_PERICENTER":"100.5269","EPHEMERIS_TYPE":"0","OBJECT_ID":"2020-088Y","MEAN_MOTION":"15.06401496","RA_OF_ASC_NODE":"293.6333","REV_AT_EPOCH":"13458","MEAN_MOTION_DDOT":"0.0000000000000","INCLINATION":"53.0533","NORAD_CAT_ID":"47144","MEAN_MOTION_DOT":"0.00013754","REF_FRAME":"TEME","FILE":"3896517","OBJECT_TYPE":"PAYLOAD","SEMIMAJOR_AXIS":"6925.344","GP_ID":"230927113","CLASSIFICATION_TYPE":"U","MEAN_ANOMALY":"259.5828","CENTER_NAME":"EARTH","LAUNCH_DATE":"2020-11-25","OBJECT_NAME":"STARLINK-1857","APOAPSIS":"547.877","TLE_LINE2":"2 47144  53.0533 293.6333 0000965 100.5269 259.5828 15.06401496134589","TIME_SYSTEM":"UTC","MEAN_ELEMENT_THEORY":"SGP4","ECCENTRICITY":"0.00009650","PERIOD":"95.592","SITE":"AFETR","PERIAPSIS":"546.541","ELEMENT_SET_NO":"999","COUNTRY_CODE":"US","EPOCH":"2023-04-29T12:08:14.961408","DECAY_DATE":null},{"EPOCH":"2023-04-29T12:42:44.695008","DECAY_DATE":null,"ELEMENT_SET_NO":"999","COUNTRY_CODE":"US","SITE":"AFETR","ECCENTRICITY":"0.00012680","PERIOD":"95.592","PERIAPSIS":"546.344","LAUNCH_DATE":"2020-11-25","CENTER_NAME":"EARTH","MEAN_ELEMENT_THEORY":"SGP4","OBJECT_NAME":"STARLINK-1860","APOAPSIS":"548.100","TLE_LINE2":"2 47147  53.0538 313.5234 0001268  98.4437 261.6695 15.06397320134315","TIME_SYSTEM":"UTC","SEMIMAJOR_AXIS":"6925.357","GP_ID":"230925380","REF_FRAME":"TEME","MEAN_MOTION_DOT":"0.00000941","FILE":"3896517","OBJECT_TYPE":"PAYLOAD","CLASSIFICATION_TYPE":"U","MEAN_ANOMALY":"261.6695","REV_AT_EPOCH":"13431","MEAN_MOTION_DDOT":"0.0000000000000","RA_OF_ASC_NODE":"313.5234","MEAN_MOTION":"15.06397320","INCLINATION":"53.0538","NORAD_CAT_ID":"47147","ARG_OF_PERICENTER":"98.4437","OBJECT_ID":"2020-088AB","EPHEMERIS_TYPE":"0","BSTAR":"0.00008204400000","RCS_SIZE":"LARGE","TLE_LINE1":"1 47147U 20088AB  23119.52968397  .00000941  00000-0  82044-4 0  9992"},{"MEAN_ANOMALY":"290.3532","CLASSIFICATION_TYPE":"U","GP_ID":"230935620","SEMIMAJOR_AXIS":"6925.270","FILE":"3896632","OBJECT_TYPE":"PAYLOAD","MEAN_MOTION_DOT":"0.00021964","REF_FRAME":"TEME","NORAD_CAT_ID":"47148","INCLINATION":"53.0541","MEAN_MOTION_DDOT":"0.0000000000000","REV_AT_EPOCH":"13473","RA_OF_ASC_NODE":"302.4438","MEAN_MOTION":"15.06425680","OBJECT_ID":"2020-088AC","EPHEMERIS_TYPE":"0","ARG_OF_PERICENTER":"69.7571","TLE_LINE1":"1 47148U 20088AC  23119.77019229  .00021964  00000-0  14878-2 0  9997","RCS_SIZE":"LARGE","BSTAR":"0.00148780000000","DECAY_DATE":null,"EPOCH":"2023-04-29T18:29:04.613856","COUNTRY_CODE":"US","ELEMENT_SET_NO":"999","PERIAPSIS":"546.395","SITE":"AFETR","PERIOD":"95.591","ECCENTRICITY":"0.00010690","MEAN_ELEMENT_THEORY":"SGP4","TLE_LINE2":"2 47148  53.0541 302.4438 0001069  69.7571 290.3532 15.06425680134738","TIME_SYSTEM":"UTC","APOAPSIS":"547.875","OBJECT_NAME":"STARLINK-1861","LAUNCH_DATE":"2020-11-25","CENTER_NAME":"EARTH"},{"OBJECT_ID":"2020-088AD","EPHEMERIS_TYPE":"0","ARG_OF_PERICENTER":"80.3221","TLE_LINE1":"1 47149U 20088AD  23119.73241504  .00010205  00000-0  70288-3 0  9991","RCS_SIZE":"LARGE","BSTAR":"0.00070288000000","MEAN_ANOMALY":"279.7941","CLASSIFICATION_TYPE":"U","OBJECT_TYPE":"PAYLOAD","FILE":"3896633","MEAN_MOTION_DOT":"0.00010205","REF_FRAME":"TEME","GP_ID":"230936139","SEMIMAJOR_AXIS":"6925.333","NORAD_CAT_ID":"47149","INCLINATION":"53.0529","MEAN_MOTION":"15.06405100","RA_OF_ASC_NODE":"312.6106","MEAN_MOTION_DDOT":"0.0000000000000","REV_AT_EPOCH":"13459","PERIAPSIS":"546.140","PERIOD":"95.592","ECCENTRICITY":"0.00015280","SITE":"AFETR","TLE_LINE2":"2 47149  53.0529 312.6106 0001528  80.3221 279.7941 15.06405100134595","TIME_SYSTEM":"UTC","APOAPSIS":"548.256","OBJECT_NAME":"STARLINK-1862","MEAN_ELEMENT_THEORY":"SGP4","CENTER_NAME":"EARTH","LAUNCH_DATE":"2020-11-25","DECAY_DATE":null,"EPOCH":"2023-04-29T17:34:40.659456","COUNTRY_CODE":"US","ELEMENT_SET_NO":"999"},{"OBJECT_ID":"2020-088AE","EPHEMERIS_TYPE":"0","ARG_OF_PERICENTER":"75.4941","TLE_LINE1":"1 47150U 20088AE  23119.85864876  .00020032  00000-0  13581-2 0  9990","RCS_SIZE":"LARGE","BSTAR":"0.00135810000000","MEAN_ANOMALY":"284.6206","CLASSIFICATION_TYPE":"U","OBJECT_TYPE":"PAYLOAD","FILE":"3896648","MEAN_MOTION_DOT":"0.00020032","REF_FRAME":"TEME","GP_ID":"230936346","SEMIMAJOR_AXIS":"6925.201","NORAD_CAT_ID":"47150","INCLINATION":"53.0535","MEAN_MOTION":"15.06448230","RA_OF_ASC_NODE":"302.0494","MEAN_MOTION_DDOT":"0.0000000000000","REV_AT_EPOCH":"13475","PERIAPSIS":"546.077","PERIOD":"95.589","ECCENTRICITY":"0.00014280","SITE":"AFETR","TIME_SYSTEM":"UTC","TLE_LINE2":"2 47150  53.0535 302.0494 0001428  75.4941 284.6206 15.06448230134758","OBJECT_NAME":"STARLINK-1863","APOAPSIS":"548.055","MEAN_ELEMENT_THEORY":"SGP4","CENTER_NAME":"EARTH","LAUNCH_DATE":"2020-11-25","DECAY_DATE":null,"EPOCH":"2023-04-29T20:36:27.252864","COUNTRY_CODE":"US","ELEMENT_SET_NO":"999"},{"EPOCH":"2023-04-29T17:24:03.716928","DECAY_DATE":null,"ELEMENT_SET_NO":"999","COUNTRY_CODE":"US","SITE":"AFETR","PERIOD":"95.592","ECCENTRICITY":"0.00014330","PERIAPSIS":"546.231","LAUNCH_DATE":"2020-11-25","CENTER_NAME":"EARTH","MEAN_ELEMENT_THEORY":"SGP4","TIME_SYSTEM":"UTC","TLE_LINE2":"2 47151  53.0523 312.6454 0001433  90.9747 269.1406 15.06396837134587","OBJECT_NAME":"STARLINK-1864","APOAPSIS":"548.216","GP_ID":"230936353","SEMIMAJOR_AXIS":"6925.358","OBJECT_TYPE":"PAYLOAD","FILE":"3896649","MEAN_MOTION_DOT":"0.00002022","REF_FRAME":"TEME","MEAN_ANOMALY":"269.1406","CLASSIFICATION_TYPE":"U","MEAN_MOTION_DDOT":"0.0000000000000","REV_AT_EPOCH":"13458","RA_OF_ASC_NODE":"312.6454","MEAN_MOTION":"15.06396837","NORAD_CAT_ID":"47151","INCLINATION":"53.0523","ARG_OF_PERICENTER":"90.9747","EPHEMERIS_TYPE":"0","OBJECT_ID":"2020-088AF","RCS_SIZE":"LARGE","BSTAR":"0.00015460000000","TLE_LINE1":"1 47151U 20088AF  23119.72504302  .00002022  00000-0  15460-3 0  9990"},{"RCS_SIZE":"LARGE","BSTAR":"0.00122890000000","TLE_LINE1":"1 47152U 20088AG  23119.24493234  .00018069  00000-0  12289-2 0  9992","ARG_OF_PERICENTER":"116.7569","EPHEMERIS_TYPE":"0","OBJECT_ID":"2020-088AG","RA_OF_ASC_NODE":"314.7945","MEAN_MOTION":"15.06397658","MEAN_MOTION_DDOT":"0.0000000000000","REV_AT_EPOCH":"13426","NORAD_CAT_ID":"47152","INCLINATION":"53.0540","OBJECT_TYPE":"PAYLOAD","FILE":"3896517","MEAN_MOTION_DOT":"0.00018069","REF_FRAME":"TEME","GP_ID":"230925631","SEMIMAJOR_AXIS":"6925.356","MEAN_ANOMALY":"243.3538","CLASSIFICATION_TYPE":"U","CENTER_NAME":"EARTH","LAUNCH_DATE":"2020-11-25","TLE_LINE2":"2 47152  53.0540 314.7945 0001147 116.7569 243.3538 15.06397658134263","TIME_SYSTEM":"UTC","APOAPSIS":"548.015","OBJECT_NAME":"STARLINK-1866","MEAN_ELEMENT_THEORY":"SGP4","PERIOD":"95.592","ECCENTRICITY":"0.00011470","SITE":"AFETR","PERIAPSIS":"546.426","ELEMENT_SET_NO":"999","COUNTRY_CODE":"US","EPOCH":"2023-04-29T05:52:42.154176","DECAY_DATE":null}];
